ONEWEB-0240             
1 48785U 21045U   24072.51586540  .00000090  00000+0  20499-3 0  9998
2 48785  87.8961  63.6920 0001481  77.9446 282.1850 13.15547590136837
ONEWEB-0246             
1 48786U 21045V   24072.51031844  .00000106  00000+0  24691-3 0  9997
2 48786  87.8962  63.6962 0002018  81.3630 278.7729 13.15548129136707
ONEWEB-0210             
1 48787U 21045W   24072.02862708  .00000165  00000+0  40483-3 0  9997
2 48787  87.8956  63.7987 0002303  70.6210 289.5170 13.15547752136690
ONEWEB-0214             
1 48788U 21045X   24072.49447141  .00000242  00000+0  60928-3 0  9991
2 48788  87.8959  63.6943 0002370  72.4015 287.7374 13.15547145136717
ONEWEB-0221             
1 48789U 21045Y   24072.04446882  .00000171  00000+0  41902-3 0  9996
2 48789  87.8964  63.7995 0001748  79.1620 280.9706 13.15548175136769
ONEWEB-0213             
1 48790U 21045Z   24072.03338144  .00000183  00000+0  45079-3 0  9990
2 48790  87.8959  63.8172 0001758  74.2675 285.8649 13.15548779136816
ONEWEB-0212             
1 48791U 21045AA  24072.46674508 -.00000087  00000+0 -26647-3 0  9990
2 48791  87.8962  63.7113 0001885  89.0990 271.0356 13.15547224136872
ONEWEB-0227             
1 48792U 21045AB  24072.46594879 -.00000087  00000+0 -26447-3 0  9991
2 48792  87.8960  63.7281 0001793  84.4547 275.6788 13.15546807136811
